METEOR-M 1              
1 35865U 09049A   22021.43968636  .00000037  00000-0  35639-4 0  9991
2 35865  98.5087 356.8140 0001399 315.6630  44.4436 14.22300767640792
